{
    "links": {
        "self": "http://www.neowsapp.com/rest/v1/neo/54051020?api_key=iIulBulltgU6a56xZRHN4H3l9WmuAYTsLGpBGhQ2"
    },
    "id": "54051020",
    "neo_reference_id": "54051020",
    "name": "(2020 PC2)",
    "designation": "2020 PC2",
    "nasa_jpl_url": "http://ssd.jpl.nasa.gov/sbdb.cgi?sstr=54051020",
    "absolute_magnitude_h": 26.553,
    "estimated_diameter": {
        "kilometers": {
            "estimated_diameter_min": 0.013000348,
            "estimated_diameter_max": 0.0290696618
        },
        "meters": {
            "estimated_diameter_min": 13.0003479619,
            "estimated_diameter_max": 29.0696617739
        },
        "miles": {
            "estimated_diameter_min": 0.0080780392,
            "estimated_diameter_max": 0.0180630448
        },
        "feet": {
            "estimated_diameter_min": 42.6520616072,
            "estimated_diameter_max": 95.3729091343
        }
    },
    "is_potentially_hazardous_asteroid": false,
    "close_approach_data": [
        {
            "close_approach_date": "2020-08-04",
            "close_approach_date_full": "2020-Aug-04 12:45",
            "epoch_date_close_approach": 1596545100000,
            "relative_velocity": {
                "kilometers_per_second": "10.1024777501",
                "kilometers_per_hour": "36368.9199002506",
                "miles_per_hour": "22598.2324791307"
            },
            "miss_distance": {
                "astronomical": "0.0210687922",
                "lunar": "8.1957601658",
                "kilometers": "3151846.436592614",
                "miles": "1958466.5603975132"
            },
            "orbiting_body": "Earth"
        }
    ],
    "orbital_data": {
        "orbit_id": "3",
        "orbit_determination_date": "2020-09-14 09:11:23",
        "first_observation_date": "2020-08-12",
        "last_observation_date": "2020-09-14",
        "data_arc_in_days": 33,
        "observations_used": 13,
        "orbit_uncertainty": "7",
        "minimum_orbit_intersection": ".0148346",
        "jupiter_tisserand_invariant": "3.638",
        "epoch_osculation": "2459000.5",
        "eccentricity": ".5172470438214792",
        "semi_major_axis": "2.017502939404783",
        "inclination": "6.337759337444212",
        "ascending_node_longitude": "316.0870046655159",
        "orbital_period": "1046.693894985365",
        "perihelion_distance": ".9739555080965141",
        "perihelion_argument": "323.0503153255958",
        "aphelion_distance": "3.061050370713052",
        "perihelion_time": "2459039.389865667515",
        "mean_anomaly": "346.6242158214737",
        "mean_motion": ".3439400972191908",
        "equinox": "J2000",
        "orbit_class": {
            "orbit_class_type": "APO",
            "orbit_class_description": "Near-Earth asteroid orbits which cross the Earth’s orbit similar to that of 1862 Apollo",
            "orbit_class_range": "a (semi-major axis) > 1.0 AU; q (perihelion) < 1.017 AU"
        }
    },
    "is_sentry_object": false
}